[{"OBJECT_NAME":"TRANSPORTER-10 OBJECT AD","OBJECT_ID":"2024-043AD","EPOCH":"2026-03-09T20:38:52.416960","MEAN_MOTION":15.34189901,"ECCENTRICITY":0.00089841,"INCLINATION":97.547,"RA_OF_ASC_NODE":207.3753,"ARG_OF_PERICENTER":221.4908,"MEAN_ANOMALY":138.5653,"EPHEMERIS_TYPE":0,"CLASSIFICATION_TYPE":"U","NORAD_CAT_ID":59125,"ELEMENT_SET_NO":999,"REV_AT_EPOCH":11202,"BSTAR":0.00036310552,"MEAN_MOTION_DOT":0.00011954,"MEAN_MOTION_DDOT":0},{"OBJECT_NAME":"STARLINK-35532","OBJECT_ID":"2025-236F","EPOCH":"2026-03-09T12:29:45.608064","MEAN_MOTION":15.30205397,"ECCENTRICITY":0.00011984,"INCLINATION":53.158,"RA_OF_ASC_NODE":104.3062,"ARG_OF_PERICENTER":93.3164,"MEAN_ANOMALY":266.7974,"EPHEMERIS_TYPE":0,"CLASSIFICATION_TYPE":"U","NORAD_CAT_ID":66091,"ELEMENT_SET_NO":999,"REV_AT_EPOCH":2292,"BSTAR":0.0008174376,"MEAN_MOTION_DOT":0.00023933,"MEAN_MOTION_DDOT":0}]
